OUFTI-1                 
1 41458U 16025C   22097.67677963  .00027092  00000+0  11862-2 0  9996
2 41458  98.1793 259.0213 0147952 145.4443 215.6512 15.12587511326870
E-ST@R-II               
1 41459U 16025D   22098.10898963  .00025120  00000+0  11185-2 0  9999
2 41459  98.1786 258.1687 0151065 147.9569 213.0902 15.11694176326863
AAUSAT 4                
1 41460U 16025E   22098.01711627  .00035467  00000+0  14379-2 0  9995
2 41460  98.1737 263.6761 0133130 126.5749 234.7785 15.16690314327259
AIST-2D (RS-48)         
1 41465U 16026B   22098.23868200  .00015478  00000+0  39394-3 0  9990
2 41465  97.0662 336.9829 0011150  37.1625  78.8580 15.39600787332723
NUSAT-1 (FRESCO)        
1 41557U 16033B   22098.11657481  .00016742  00000+0  53107-3 0  9997
2 41557  97.3845 195.8134 0010359 266.2221 189.6968 15.32710337326606
NUSAT-2 (BATATA)        
1 41558U 16033C   22098.10886752  .00015688  00000+0  46699-3 0  9998
2 41558  97.4028 201.1169 0009727 254.7280 226.6024 15.34753582326857
CARTOSAT-2C             
1 41599U 16040A   22098.13062935  .00041483  00000+0  19605-2 0  9991
2 41599  97.4929 158.3172 0014378  71.7683   9.5013 15.19184748321251
SATHYABAMASAT           
1 41600U 16040B   22097.72089145  .00020147  00000+0  68953-3 0  9995
2 41600  97.2292 151.9208 0011635  21.6246 338.5484 15.30203910322070
LAPAN-A3                
1 41603U 16040E   22098.14303118  .00002129  00000+0  10034-3 0  9991
2 41603  97.2149 138.2090 0014676  52.9407 341.3471 15.20442921321359
BIROS                   
1 41604U 16040F   22097.87793475  .00005416  00000+0  22786-3 0  9999
2 41604  97.2197 144.9284 0012456  30.6225 329.5737 15.23718169321713
SWAYAM                  
1 41607U 16040J   22098.09411995  .00020313  00000+0  70882-3 0  9994
2 41607  97.2248 150.6999 0011502  21.4924 338.6797 15.29572604322014
BEESAT-4                
1 41619U 16040W   22097.87713217  .00017914  00000+0  63793-3 0  9990
2 41619  97.2258 150.4657 0009690  18.4814 341.6776 15.28952949309936
3CAT-2                  
1 41732U 16051B   22098.04428450  .00014656  00000+0  47835-3 0  9999
2 41732  97.3832  21.2873 0011759 173.4678 251.8873 15.31809252314540
PRATHAM                 
1 41783U 16059A   22097.86053984  .00000566  00000+0  11768-3 0  9999
2 41783  97.9227 142.2135 0034229  39.0281 321.3382 14.63280573295302
ALSAT 1N                
1 41789U 16059G   22098.12053026  .00000880  00000+0  17350-3 0  9994
2 41789  97.9256 146.8675 0028657  22.5814 337.6649 14.64596298295576
LISHUI 1-01             
1 41845U 16066E   22098.29320165  .00016694  00000+0  18754-2 0  9992
2 41845  98.7281 224.2314 0232454 288.4816  69.1080 14.69168635286519
CARTOSAT-2D             
1 41948U 17008A   22097.88624545  .00004355  00000+0  21017-3 0  9994
2 41948  97.4727 158.3289 0006225 206.2132 153.8716 15.19185854285082
NAYIF-1 (EO-88)         
1 42017U 17008BX  22098.15395452  .00021558  00000+0  69594-3 0  9991
2 42017  97.2753 165.3892 0006607 133.4179 226.7614 15.32123522286303
ZHUHAI-1 02 (CAS-4B)    
1 42759U 17034B   22098.21317160  .00006441  00000+0  38836-3 0  9999
2 42759  43.0194 359.6947 0008749 215.2450 281.9395 15.11292233265728
ZHUHAI-1 01 (CAS-4A)    
1 42761U 17034D   22098.12228552  .00006535  00000+0  39285-3 0  9991
2 42761  43.0197 359.0311 0008994 218.4370 285.7364 15.11381598265711
UCLSAT                  
1 42765U 17036A   22098.09548088  .00015017  00000+0  55334-3 0  9990
2 42765  97.2072 143.0195 0009429 204.1870 155.8928 15.27869234266517
NIUSAT                  
1 42766U 17036B   22097.89005444  .00011145  00000+0  44869-3 0  9991
2 42766  97.2113 138.2665 0013461 209.9355 150.1115 15.24952081266048
CARTOSAT-2E             
1 42767U 17036C   22098.11805738  .00041511  00000+0  19644-2 0  9994
2 42767  97.4632 159.5063 0006549 261.1133 182.5422 15.19213229265685
LITUANICASAT-2          
1 42768U 17036D   22097.87388632  .00031828  00000+0  10351-2 0  9992
2 42768  97.2159 144.9088 0012098 192.0487 168.0467 15.31755631266437
AALTO-1                 
1 42775U 17036L   22097.90035571  .00009162  00000+0  37457-3 0  9998
2 42775  97.2072 138.3021 0012135 208.6813 151.3759 15.24503088266025
URSA MAIOR              
1 42776U 17036M   22097.83874360  .00009820  00000+0  39602-3 0  9993
2 42776  97.2083 138.9068 0011950 207.5648 152.4958 15.24945224266040
COMPASS 2               
1 42777U 17036N   22097.85040955  .00021826  00000+0  75604-3 0  9993
2 42777  97.2142 144.5321 0010402 193.7962 166.2996 15.29808260266349
MAX VALIER SAT          
1 42778U 17036P   22098.11090967  .00010445  00000+0  41226-3 0  9990
2 42778  97.2150 141.6583 0010685 206.2451 153.8247 15.25661741266172
PEGASUS                 
1 42784U 17036V   22098.11164780  .00014188  00000+0  53413-3 0  9991
2 42784  97.2085 142.3709 0010032 208.0269 152.0432 15.27166937266274
NUDTSAT                 
1 42787U 17036Y   22097.96405889  .00022873  00000+0  77023-3 0  9997
2 42787  97.2122 145.8559 0009365 195.3736 164.7222 15.30727794266303
SUCHAI                  
1 42788U 17036Z   22097.65619908  .00017191  00000+0  62051-3 0  9995
2 42788  97.2094 143.3893 0009624 204.2830 155.7957 15.28519183266368
SKCUBE                  
1 42789U 17036AA  22097.88488390  .00016010  00000+0  58758-3 0  9998
2 42789  97.2090 143.1482 0009619 204.5534 155.5249 15.27985314266291
VZLUSAT-1               
1 42790U 17036AB  22097.90138392  .00023528  00000+0  79412-3 0  9999
2 42790  97.2119 145.7731 0009043 196.2329 163.8624 15.30650036266440
ROBUSTA-1B              
1 42792U 17036AD  22098.12382152  .00016829  00000+0  60941-3 0  9994
2 42792  97.2090 143.8946 0009191 203.1403 156.9424 15.28419596266376
D-SAT                   
1 42794U 17036AF  22098.01640318  .00003805  00000+0  32726-3 0  9995
2 42794  97.4541 107.1551 0122807 321.5794  37.6727 14.92282783261006
NORSAT 2                
1 42828U 17042D   22098.17282254  .00002706  00000+0  26857-3 0  9995
2 42828  97.4399 318.4286 0012720 236.1265 123.8745 14.92480736257666
TECHNOSAT               
1 42829U 17042E   22098.18971531  .00001429  00000+0  14726-3 0  9993
2 42829  97.4306 316.3994 0012641 239.5392 120.4579 14.91651823257617
2017-042F               
1 42830U 17042F   22098.16653183  .00007072  00000+0  66402-3 0  9991
2 42830  97.4449 320.3369 0012305 227.6040 132.4140 14.94187094257785
FLYING LAPTOP           
1 42831U 17042G   22097.69393327  .00001768  00000+0  18110-3 0  9999
2 42831  97.4319 316.2361 0012501 241.2006 118.7967 14.91617168257545
CORVUS BC2              
1 42846U 17042X   22098.16802129  .00001590  00000+0  15927-3 0  9999
2 42846  97.4331 319.4239 0008291 225.9530 134.1008 14.92677947257793
CORVUS BC1              
1 42847U 17042Y   22097.58325112  .00001624  00000+0  16213-3 0  9994
2 42847  97.4333 319.1644 0007900 226.9376 133.1183 14.92778877257717
SIMPL                   
1 42983U 98067NF  22097.64190843  .00088582  00000+0  42192-3 0  9992
2 42983  51.6330 193.6025 0004986 357.3383   2.7592 15.82103832253672
CZ-4C R/B               
1 43012U 17072C   22097.84802627  .00000317  00000+0  75669-4 0  9991
2 43012  98.7062 130.9001 0127571 172.8969 187.4075 14.56289149233585
RADFXSAT (FOX-1B)       
1 43017U 17073E   22097.70717580  .00006386  00000+0  48213-3 0  9991
2 43017  97.6824 354.7866 0252304  59.6037 302.9854 14.80734119236648
EAGLESAT 1              
1 43018U 17073F   22097.68105180  .00011373  00000+0  83104-3 0  9996
2 43018  97.6851 356.2872 0246444  54.4510 307.9411 14.82542281236609
INS-1C                  
1 43116U 18004F   22096.79004600  .00012933  00000+0  47425-3 0  9995
2 43116  97.3795 173.4049 0007269 239.4150 120.6373 15.28085555235380
FLOCK 3P'-3             
1 43119U 18004J   22097.44993187  .00011253  00000+0  43739-3 0  9996
2 43119  97.3783 172.3573 0008016 248.1917 111.8469 15.26186913235385
FLOCK 3P'-2             
1 43120U 18004K   22097.76178726  .00007779  00000+0  30812-3 0  9993
2 43120  97.3795 172.3263 0008008 250.1200 109.9175 15.25666683235406
FLOCK 3P'-1             
1 43121U 18004L   22098.19660275  .00028575  00000+0  90165-3 0  9991
2 43121  97.3800 176.7077 0007080 228.0455 132.0184 15.32796527235664
FLOCK 3P'-4             
1 43122U 18004M   22097.68382333  .00008394  00000+0  33167-3 0  9997
2 43122  97.3802 172.4084 0007903 251.9016 108.1361 15.25722817235394
MICROMAS-2A             
1 43131U 18004W   22097.73082061  .00029442  00000+0  93484-3 0  9993
2 43131  97.3786 177.0193 0006836 230.8209 129.2426 15.32591176235735
PICSAT                  
1 43132U 18004X   22097.74731248  .00017729  00000+0  62627-3 0  9993
2 43132  97.3753 174.6091 0007130 242.6140 117.4376 15.29243596235596
CNUSAIL-1               
1 43133U 18004Y   22098.16099235  .00012813  00000+0  48256-3 0  9995
2 43133  97.3711 173.3067 0007438 246.2802 113.7657 15.27205688235551
2018-004Z               
1 43134U 18004Z   22097.76502245  .00015090  00000+0  54773-3 0  9992
2 43134  97.3736 174.0348 0007125 244.8674 115.1827 15.28386489235569
FOX-1D (AO-92)          
1 43137U 18004AC  22098.18470856  .00012865  00000+0  47552-3 0  9998
2 43137  97.3721 174.0386 0006849 245.0047 115.0481 15.27828160235603
STEP CUBE LAB           
1 43138U 18004AD  22097.77918269  .00024301  00000+0  80137-3 0  9992
2 43138  97.3785 176.6251 0006638 237.1392 122.9211 15.31414769235715
XIAOXIANG-2             
1 43155U 18008A   22098.27663747  .00009980  00000+0  54695-3 0  9995
2 43155  97.3603 158.9554 0017173  33.7174  31.4937 15.14259974232651
ZHOU ENLAI              
1 43156U 18008B   22098.21783199  .00010708  00000+0  59197-3 0  9996
2 43156  97.3649 158.7565 0014435  35.7275  49.2751 15.13968919232571
QUANTUTONG 1            
1 43158U 18008D   22098.15198709  .00009105  00000+0  51616-3 0  9995
2 43158  97.3597 156.8079 0013469  36.1130  20.7535 15.13124484232479
